[{"OBJECT_NAME":"STARLINK-34815","OBJECT_ID":"2025-167X","EPOCH":"2026-03-09T04:34:40.652256","MEAN_MOTION":15.30192544,"ECCENTRICITY":0.00013054,"INCLINATION":53.1601,"RA_OF_ASC_NODE":28.9619,"ARG_OF_PERICENTER":81.9313,"MEAN_ANOMALY":278.1836,"EPHEMERIS_TYPE":0,"CLASSIFICATION_TYPE":"U","NORAD_CAT_ID":65099,"ELEMENT_SET_NO":999,"REV_AT_EPOCH":3340,"BSTAR":0.00054021084,"MEAN_MOTION_DOT":0.0001567,"MEAN_MOTION_DDOT":0},{"OBJECT_NAME":"KUIPER-00175","OBJECT_ID":"2025-301C","EPOCH":"2026-03-09T23:30:37.840032","MEAN_MOTION":15.30996371,"ECCENTRICITY":0.00022792,"INCLINATION":51.8781,"RA_OF_ASC_NODE":63.6978,"ARG_OF_PERICENTER":50.5695,"MEAN_ANOMALY":309.549,"EPHEMERIS_TYPE":0,"CLASSIFICATION_TYPE":"U","NORAD_CAT_ID":67135,"ELEMENT_SET_NO":999,"REV_AT_EPOCH":1385,"BSTAR":0.00066732304,"MEAN_MOTION_DOT":0.00019968,"MEAN_MOTION_DDOT":0}]
